[{"OBJECT_NAME":"STARLINK-5804","OBJECT_ID":"2023-028AZ","EPOCH":"2026-03-09T18:09:41.726016","MEAN_MOTION":14.98330267,"ECCENTRICITY":0.0003375,"INCLINATION":70.0006,"RA_OF_ASC_NODE":204.3897,"ARG_OF_PERICENTER":266.9531,"MEAN_ANOMALY":93.1241,"EPHEMERIS_TYPE":0,"CLASSIFICATION_TYPE":"U","NORAD_CAT_ID":55788,"ELEMENT_SET_NO":999,"REV_AT_EPOCH":16703,"BSTAR":1.160347e-6,"MEAN_MOTION_DOT":-7.9e-7,"MEAN_MOTION_DDOT":0},{"OBJECT_NAME":"LEMUR-2-BALTO","OBJECT_ID":"2025-052BH","EPOCH":"2026-03-09T16:40:42.002112","MEAN_MOTION":14.98934076,"ECCENTRICITY":0.00022794,"INCLINATION":97.6978,"RA_OF_ASC_NODE":323.5166,"ARG_OF_PERICENTER":359.2852,"MEAN_ANOMALY":0.8367,"EPHEMERIS_TYPE":0,"CLASSIFICATION_TYPE":"U","NORAD_CAT_ID":63395,"ELEMENT_SET_NO":999,"REV_AT_EPOCH":5385,"BSTAR":0.00063455958,"MEAN_MOTION_DOT":7.621e-5,"MEAN_MOTION_DDOT":0}]
