STARLINK-5804           
1 55788U 23028AZ  26068.75673294 -.00000079  00000+0  11603-5 0  9995
2 55788  70.0006 204.3897 0003375 266.9531  93.1241 14.98330267167031
LEMUR-2-BALTO           
1 63395U 25052BH  26068.69493058  .00007621  00000+0  63456-3 0  9998
2 63395  97.6978 323.5166 0002279 359.2852   0.8367 14.98934076 53850
